STARLINK-35620          
1 66474U 25262U   25332.16671295 -.01716799  00000+0 -10905-1 0  9993
2 66474  42.9984 157.2867 0001768 268.0105 335.3733 15.78365430  3298
STARLINK-35538          
1 66475U 25262V   25332.16671295 -.01736711  00000+0 -11085-1 0  9990
2 66475  42.9987 157.2814 0001670 263.5506 342.0236 15.78295304  3296
STARLINK-35372          
1 66476U 25262W   25332.16671295 -.01725485  00000+0 -11040-1 0  9998
2 66476  42.9986 157.2760 0001455 269.3125 338.3870 15.78226400  3189
STARLINK-35354          
1 66477U 25262X   25332.16671295 -.01775459  00000+0 -11501-1 0  9997
2 66477  42.9988 157.2645 0001542 266.3902 345.8304 15.78038069  3290
STARLINK-35283          
1 66478U 25262Y   25332.16671295 -.01768943  00000+0 -11506-1 0  9993
2 66478  42.9986 157.2583 0001659 269.4481 344.9875 15.77935646  3294
STARLINK-35581          
1 66479U 25262Z   25332.16671295 -.01760089  00000+0 -11335-1 0  9997
2 66479  42.9985 157.2698 0001803 271.3993 338.5640 15.78137616  3293
STARLINK-35670          
1 66480U 25262AA  25332.16671295 -.01783145  00000+0 -11639-1 0  9994
2 66480  42.9986 157.2527 0001604 264.9446 351.5902 15.77882770  3290
STARLINK-35698          
1 66481U 25262AB  25332.16671295 -.01808130  00000+0 -11866-1 0  9999
2 66481  42.9987 157.2470 0001726 267.5670 351.1465 15.77807217  3295
STARLINK-35648          
1 66482U 25262AC  25332.16671295 -.01860743  00000+0 -12302-1 0  9994
2 66482  42.9987 157.2420 0001674 269.3789 351.5187 15.77736475  3139
STARLINK-35654          
1 66483U 25262AD  25332.16671295 -.01899836  00000+0 -12638-1 0  9992
2 66483  42.9983 157.2360 0001548 266.2530 356.7840 15.77670413  3298
STARLINK-35371          
1 66484U 25262AE  25332.16671295 -.01799734  00000+0 -11966-1 0  9992
2 66484  42.9986 157.2312 0001674 265.0257   0.2177 15.77504797  3297
STARLINK-34774          
1 66485U 25263A   25332.16671295 -.01258786  00000+0 -59574-2 0  9999
2 66485  42.9976 212.1275 0001744 276.2087 298.9790 15.84656033  3295
